[{"OBJECT_NAME":"STARLINK-35065","OBJECT_ID":"2025-194H","EPOCH":"2026-03-09T13:12:01.205280","MEAN_MOTION":15.05652006,"ECCENTRICITY":0.00021494,"INCLINATION":97.6028,"RA_OF_ASC_NODE":284.2088,"ARG_OF_PERICENTER":69.3419,"MEAN_ANOMALY":290.8038,"EPHEMERIS_TYPE":0,"CLASSIFICATION_TYPE":"U","NORAD_CAT_ID":65441,"ELEMENT_SET_NO":999,"REV_AT_EPOCH":2962,"BSTAR":0.00045294617,"MEAN_MOTION_DOT":6.481e-5,"MEAN_MOTION_DDOT":0},{"OBJECT_NAME":"COSMOS 2251 DEB","OBJECT_ID":"1993-036KZ","EPOCH":"2026-03-09T13:28:08.575968","MEAN_MOTION":15.07827872,"ECCENTRICITY":0.00279097,"INCLINATION":73.9949,"RA_OF_ASC_NODE":118.7357,"ARG_OF_PERICENTER":226.7607,"MEAN_ANOMALY":259.798,"EPHEMERIS_TYPE":0,"CLASSIFICATION_TYPE":"U","NORAD_CAT_ID":34128,"ELEMENT_SET_NO":999,"REV_AT_EPOCH":90472,"BSTAR":0.0021198383,"MEAN_MOTION_DOT":0.0003287,"MEAN_MOTION_DDOT":0}]
